[{"OBJECT_NAME":"STARLINK-35934","OBJECT_ID":"2026-014L","EPOCH":"2026-02-04T06:00:04.000320","MEAN_MOTION":15.80854385,"ECCENTRICITY":0.00016381,"INCLINATION":97.2787,"RA_OF_ASC_NODE":278.4637,"ARG_OF_PERICENTER":82.1346,"MEAN_ANOMALY":321.1938,"EPHEMERIS_TYPE":0,"CLASSIFICATION_TYPE":"U","NORAD_CAT_ID":67542,"ELEMENT_SET_NO":999,"REV_AT_EPOCH":330,"BSTAR":-0.00032690313,"MEAN_MOTION_DOT":-0.00062425,"MEAN_MOTION_DDOT":0},{"OBJECT_NAME":"STARLINK-36581","OBJECT_ID":"2026-014M","EPOCH":"2026-02-04T06:00:04.000320","MEAN_MOTION":15.80801095,"ECCENTRICITY":0.00015898,"INCLINATION":97.2788,"RA_OF_ASC_NODE":278.4667,"ARG_OF_PERICENTER":69.1214,"MEAN_ANOMALY":341.0006,"EPHEMERIS_TYPE":0,"CLASSIFICATION_TYPE":"U","NORAD_CAT_ID":67543,"ELEMENT_SET_NO":999,"REV_AT_EPOCH":331,"BSTAR":0.00022600788,"MEAN_MOTION_DOT":0.00043336,"MEAN_MOTION_DDOT":0},{"OBJECT_NAME":"STARLINK-36565","OBJECT_ID":"2026-014N","EPOCH":"2026-02-04T06:00:04.000320","MEAN_MOTION":15.80742462,"ECCENTRICITY":8.544e-5,"INCLINATION":97.2779,"RA_OF_ASC_NODE":278.4679,"ARG_OF_PERICENTER":122.7266,"MEAN_ANOMALY":293.4247,"EPHEMERIS_TYPE":0,"CLASSIFICATION_TYPE":"U","NORAD_CAT_ID":67544,"ELEMENT_SET_NO":999,"REV_AT_EPOCH":331,"BSTAR":0.00038608487,"MEAN_MOTION_DOT":0.00074192,"MEAN_MOTION_DDOT":0},{"OBJECT_NAME":"STARLINK-36583","OBJECT_ID":"2026-014P","EPOCH":"2026-02-04T06:00:04.000320","MEAN_MOTION":15.80895291,"ECCENTRICITY":9.728e-5,"INCLINATION":97.2778,"RA_OF_ASC_NODE":278.4706,"ARG_OF_PERICENTER":83.3595,"MEAN_ANOMALY":338.8245,"EPHEMERIS_TYPE":0,"CLASSIFICATION_TYPE":"U","NORAD_CAT_ID":67545,"ELEMENT_SET_NO":999,"REV_AT_EPOCH":331,"BSTAR":-0.00077698987,"MEAN_MOTION_DOT":-0.0014702,"MEAN_MOTION_DDOT":0},{"OBJECT_NAME":"STARLINK-36580","OBJECT_ID":"2026-014Q","EPOCH":"2026-02-04T06:00:04.000320","MEAN_MOTION":15.81092542,"ECCENTRICITY":0.00013748,"INCLINATION":97.2778,"RA_OF_ASC_NODE":278.4736,"ARG_OF_PERICENTER":89.9072,"MEAN_ANOMALY":339.9634,"EPHEMERIS_TYPE":0,"CLASSIFICATION_TYPE":"U","NORAD_CAT_ID":67546,"ELEMENT_SET_NO":999,"REV_AT_EPOCH":331,"BSTAR":-0.0022923249,"MEAN_MOTION_DOT":-0.00423953,"MEAN_MOTION_DDOT":0},{"OBJECT_NAME":"STARLINK-36584","OBJECT_ID":"2026-014R","EPOCH":"2026-02-04T06:00:04.000320","MEAN_MOTION":15.81279422,"ECCENTRICITY":0.00010044,"INCLINATION":97.2775,"RA_OF_ASC_NODE":278.4756,"ARG_OF_PERICENTER":93.068,"MEAN_ANOMALY":342.1834,"EPHEMERIS_TYPE":0,"CLASSIFICATION_TYPE":"U","NORAD_CAT_ID":67547,"ELEMENT_SET_NO":999,"REV_AT_EPOCH":331,"BSTAR":-0.0035998243,"MEAN_MOTION_DOT":-0.00654142,"MEAN_MOTION_DDOT":0},{"OBJECT_NAME":"STARLINK-36586","OBJECT_ID":"2026-014S","EPOCH":"2026-02-04T06:00:04.000320","MEAN_MOTION":15.8164305,"ECCENTRICITY":0.00014296,"INCLINATION":97.2783,"RA_OF_ASC_NODE":278.4795,"ARG_OF_PERICENTER":87.0575,"MEAN_ANOMALY":355.7349,"EPHEMERIS_TYPE":0,"CLASSIFICATION_TYPE":"U","NORAD_CAT_ID":67548,"ELEMENT_SET_NO":999,"REV_AT_EPOCH":331,"BSTAR":-0.0060807916,"MEAN_MOTION_DOT":-0.01070638,"MEAN_MOTION_DDOT":0},{"OBJECT_NAME":"STARLINK-36564","OBJECT_ID":"2026-014T","EPOCH":"2026-02-04T06:00:04.000320","MEAN_MOTION":15.81933304,"ECCENTRICITY":0.00015157,"INCLINATION":97.2787,"RA_OF_ASC_NODE":278.4829,"ARG_OF_PERICENTER":73.8684,"MEAN_ANOMALY":15.4434,"EPHEMERIS_TYPE":0,"CLASSIFICATION_TYPE":"U","NORAD_CAT_ID":67549,"ELEMENT_SET_NO":999,"REV_AT_EPOCH":325,"BSTAR":-0.0073206404,"MEAN_MOTION_DOT":-0.01300972,"MEAN_MOTION_DDOT":0},{"OBJECT_NAME":"STARLINK-36563","OBJECT_ID":"2026-014U","EPOCH":"2026-02-04T06:00:04.000320","MEAN_MOTION":15.82224927,"ECCENTRICITY":0.00016835,"INCLINATION":97.2776,"RA_OF_ASC_NODE":278.4842,"ARG_OF_PERICENTER":71.0489,"MEAN_ANOMALY":24.7109,"EPHEMERIS_TYPE":0,"CLASSIFICATION_TYPE":"U","NORAD_CAT_ID":67550,"ELEMENT_SET_NO":999,"REV_AT_EPOCH":331,"BSTAR":-0.0084414875,"MEAN_MOTION_DOT":-0.01522077,"MEAN_MOTION_DDOT":0},{"OBJECT_NAME":"STARLINK-36566","OBJECT_ID":"2026-014V","EPOCH":"2026-02-04T06:00:04.000320","MEAN_MOTION":15.82433709,"ECCENTRICITY":0.00015025,"INCLINATION":97.2773,"RA_OF_ASC_NODE":278.4866,"ARG_OF_PERICENTER":84.6655,"MEAN_ANOMALY":16.9627,"EPHEMERIS_TYPE":0,"CLASSIFICATION_TYPE":"U","NORAD_CAT_ID":67551,"ELEMENT_SET_NO":999,"REV_AT_EPOCH":331,"BSTAR":-0.0085830482,"MEAN_MOTION_DOT":-0.01557745,"MEAN_MOTION_DDOT":0},{"OBJECT_NAME":"STARLINK-36567","OBJECT_ID":"2026-014W","EPOCH":"2026-02-04T06:00:04.000320","MEAN_MOTION":15.82624334,"ECCENTRICITY":0.00016102,"INCLINATION":97.2772,"RA_OF_ASC_NODE":278.4892,"ARG_OF_PERICENTER":79.0277,"MEAN_ANOMALY":28.5245,"EPHEMERIS_TYPE":0,"CLASSIFICATION_TYPE":"U","NORAD_CAT_ID":67552,"ELEMENT_SET_NO":999,"REV_AT_EPOCH":331,"BSTAR":-0.0085778507,"MEAN_MOTION_DOT":-0.01569311,"MEAN_MOTION_DDOT":0},{"OBJECT_NAME":"STARLINK-36569","OBJECT_ID":"2026-014X","EPOCH":"2026-02-04T06:00:04.000320","MEAN_MOTION":15.82890843,"ECCENTRICITY":0.00016344,"INCLINATION":97.2768,"RA_OF_ASC_NODE":278.4915,"ARG_OF_PERICENTER":85.2736,"MEAN_ANOMALY":30.0503,"EPHEMERIS_TYPE":0,"CLASSIFICATION_TYPE":"U","NORAD_CAT_ID":67553,"ELEMENT_SET_NO":999,"REV_AT_EPOCH":331,"BSTAR":-0.008599127,"MEAN_MOTION_DOT":-0.01590164,"MEAN_MOTION_DDOT":0},{"OBJECT_NAME":"STARLINK-36395","OBJECT_ID":"2026-014Y","EPOCH":"2026-02-04T06:00:04.000320","MEAN_MOTION":15.83555076,"ECCENTRICITY":0.00016271,"INCLINATION":97.2769,"RA_OF_ASC_NODE":278.5008,"ARG_OF_PERICENTER":87.4569,"MEAN_ANOMALY":48.4374,"EPHEMERIS_TYPE":0,"CLASSIFICATION_TYPE":"U","NORAD_CAT_ID":67554,"ELEMENT_SET_NO":999,"REV_AT_EPOCH":331,"BSTAR":-0.00827803,"MEAN_MOTION_DOT":-0.0158104,"MEAN_MOTION_DDOT":0},{"OBJECT_NAME":"STARLINK-36559","OBJECT_ID":"2026-014Z","EPOCH":"2026-02-04T06:00:04.000320","MEAN_MOTION":15.83353663,"ECCENTRICITY":0.00016578,"INCLINATION":97.2771,"RA_OF_ASC_NODE":278.4981,"ARG_OF_PERICENTER":84.1593,"MEAN_ANOMALY":45.4742,"EPHEMERIS_TYPE":0,"CLASSIFICATION_TYPE":"U","NORAD_CAT_ID":67555,"ELEMENT_SET_NO":999,"REV_AT_EPOCH":331,"BSTAR":-0.0083802453,"MEAN_MOTION_DOT":-0.01584813,"MEAN_MOTION_DDOT":0},{"OBJECT_NAME":"STARLINK-36426","OBJECT_ID":"2026-014AA","EPOCH":"2026-02-04T06:00:04.000320","MEAN_MOTION":15.83075883,"ECCENTRICITY":0.00017939,"INCLINATION":97.2768,"RA_OF_ASC_NODE":278.4941,"ARG_OF_PERICENTER":84.939,"MEAN_ANOMALY":36.2308,"EPHEMERIS_TYPE":0,"CLASSIFICATION_TYPE":"U","NORAD_CAT_ID":67560,"ELEMENT_SET_NO":999,"REV_AT_EPOCH":215,"BSTAR":-0.0085186298,"MEAN_MOTION_DOT":-0.0158939,"MEAN_MOTION_DDOT":0},{"OBJECT_NAME":"STARLINK-36621","OBJECT_ID":"2026-016A","EPOCH":"2026-02-04T06:00:04.000320","MEAN_MOTION":15.8695988,"ECCENTRICITY":0.00015897,"INCLINATION":97.2816,"RA_OF_ASC_NODE":93.9449,"ARG_OF_PERICENTER":76.6347,"MEAN_ANOMALY":151.7193,"EPHEMERIS_TYPE":0,"CLASSIFICATION_TYPE":"U","NORAD_CAT_ID":67561,"ELEMENT_SET_NO":999,"REV_AT_EPOCH":267,"BSTAR":-0.0078920692,"MEAN_MOTION_DOT":-0.01750728,"MEAN_MOTION_DDOT":0}]
